X,Y,OBJECTID,GIS_ID,NAME,WEB_URL,EXIT_TO_ST,FEATURECOD,DESCRIPTIO,CAPTUREYEA,LINE,ADDRESS_ID,ADDRESS
-77.169102329395272,38.766707753742729,1,mstn_055,FRANCONIA-SPRINGF'LD,http://www.wmata.com/rail/station_detail.cfm?station_id=95,SOUTH SIDE OF FRANCONIA-SPRINGFIELD PKWY,,Metro Station Entrance,2016-01-08T00:00:00.000Z,blue,,"6880 FRONTIER DRIVE, SPRINGFIELD, VA  22150"
-77.103300537503898,38.883025146973672,2,mstn_084,VIRGINIA SQUARE | GMU ELEVATOR,http://www.wmata.com/rail/station_detail.cfm?station_id=98,SOUTH SIDE OF N FAIRFAX DR BETWEEN N NELSON ST AND N MONROE ST ,,Metro Station Entrance,2016-01-08T00:00:00.000Z,"orange, silver",,"3600 FAIRFAX DRIVE, ARLINGTON, VA 22201"
-77.103602326510909,39.028907810500009,3,mstn_060,GROSVENOR-STRATHMORE,http://www.wmata.com/rail/station_detail.cfm?station_id=14,SE OF TUCKERMAN LN AND ROCKVILLE PIKE ,,Metro Station Entrance,2016-01-08T00:00:00.000Z,red,,"10300 ROCKVILLE PIKE, ROCKVILLE, MD 20852"
-77.104502327488802,39.028807808813788,4,mstn_060,GROSVENOR-STRATHMORE,http://www.wmata.com/rail/station_detail.cfm?station_id=14,SW OF TUCKERMAN LN AND ROCKVILLE PIKE ,,Metro Station Entrance,2016-01-08T00:00:00.000Z,red,,"10300 ROCKVILLE PIKE, ROCKVILLE, MD 20852"
-77.0433192930102,38.908682886128517,5,mstn_010,DUPONT CIRCLE,http://www.wmata.com/rail/station_detail.cfm?station_id=6,SE CORNER OF 19TH STREET NW AND DUPONT CIRCLE NW,1370,Metro Station Entrance,2016-01-08T00:00:00.000Z,red,294836,"1351 19TH ST NW, WASHINGTON, DC 20036"
-77.112101905543724,38.882061724854239,6,mstn_046,BALLSTON ELEVATOR,http://www.wmata.com/rail/station_detail.cfm?station_id=99,SW CORNER OF N FAIRFAX DR AND N STUART ST ,,Metro Station Entrance,2016-01-08T00:00:00.000Z,"orange, silver",,"4230 FAIRFAX DRIVE, ARLINGTON, VA 22201"
-77.095202314876474,38.887107781005206,7,mstn_047,CLARENDON,http://www.wmata.com/rail/station_detail.cfm?station_id=97,WEST SIDE OF N HIGHLAND ST BETWEEN WILSON BLVD AND CLARENDON BLVD,,Metro Station Entrance,2016-01-08T00:00:00.000Z,"orange, silver",,"3100 WILSON BOULEVARD, ARLINGTON, VA 22201"
-77.095707569686382,38.886737931355576,8,mstn_047,CLARENDON ELEVATOR,http://www.wmata.com/rail/station_detail.cfm?station_id=97,WEST SIDE OF N HIGHLAND ST BETWEEN WILSON BLVD AND CLARENDON BLVD,,Metro Station Entrance,2016-01-08T00:00:00.000Z,"orange, silver",,"3100 WILSON BOULEVARD, ARLINGTON, VA 22201"
-76.937536947591923,38.89056830918674,9,mstn_002,BENNING ROAD ELEVATOR,http://www.wmata.com/rail/station_detail.cfm?station_id=90,NE CORNER OF BENNING ROAD NE AND CENTRAL AVENUE NE,1370,Metro Station Entrance,2016-01-08T00:00:00.000Z,"blue, silver",294851,"4500 BENNING ROAD NE, WASHINGTON, DC 20019"
-77.086102307233801,38.890507783977242,10,mstn_049,COURT HOUSE ELEVATOR,http://www.wmata.com/rail/station_detail.cfm?station_id=96,SE CORNER OF CLARENDON BLVD AND 15TH ST N,,Metro Station Entrance,2016-01-08T00:00:00.000Z,"orange, silver",,"2100 WILSON BOULEVARD, ARLINGTON, VA 22201"
-77.084902308632522,38.890607781582112,11,mstn_049,COURT HOUSE ELEVATOR,http://www.wmata.com/rail/station_detail.cfm?station_id=96,SE CORNER OF 15TH ST N AND N UHLE ST,,Metro Station Entrance,2016-01-08T00:00:00.000Z,"orange, silver",,"2100 WILSON BOULEVARD, ARLINGTON, VA 22201"
-77.085302308354045,38.890307780237798,12,mstn_049,COURT HOUSE,http://www.wmata.com/rail/station_detail.cfm?station_id=96,NORTHEN SIDE OF ARLINGTON COUNTY DMV SELECT BUILDING ,,Metro Station Entrance,2016-01-08T00:00:00.000Z,"orange, silver",,"2100 WILSON BOULEVARD, ARLINGTON, VA 22201"
-77.085002310314209,38.891307782613296,13,mstn_049,COURT HOUSE,http://www.wmata.com/rail/station_detail.cfm?station_id=96,SW OF N UHLE ST AND CLARENDON BLVD,,Metro Station Entrance,2016-01-08T00:00:00.000Z,"orange, silver",,"2100 WILSON BOULEVARD, ARLINGTON, VA 22201"
-77.228402353100691,38.882807776685574,14,mstn_051,DUNN LORING,http://www.wmata.com/rail/station_detail.cfm?station_id=102,BY GALLOWS ROAD AND I 66 HWY ,,Metro Station Entrance,2016-01-08T00:00:00.000Z,orange,,"2700 GALLOWS ROAD, VIENNA, VA 22180"
-77.271544194217284,38.878308450246962,15,mstn_083,VIENNA | FAIRFAX-GMU,http://www.wmata.com/rail/station_detail.cfm?station_id=103,WEST SIDE OF VADEN DR BETWEEN I - 66 W AND I - 66 E,,Metro Station Entrance,2016-01-08T00:00:00.000Z,orange,,"9550 SAINTSBURY DRIVE, FAIRFAX, VA 22031"
-77.271288340244439,38.877385694897356,16,mstn_083,VIENNA | FAIRFAX-GMU,http://www.wmata.com/rail/station_detail.cfm?station_id=103,WEST SIDE OF VADEN DR BETWEEN I - 66 W AND I - 66 E,,Metro Station Entrance,2016-01-08T00:00:00.000Z,orange,,"9550 SAINTSBURY DRIVE, FAIRFAX, VA 22031"
-77.168709528542607,38.766072964293343,17,mstn_055,FRANCONIA-SPRINGF'LD,http://www.wmata.com/rail/station_detail.cfm?station_id=95,SOUTH SIDE OF FRANCONIA-SPRINGFIELD PKWY,,Metro Station Entrance,2016-01-08T00:00:00.000Z,blue,,"6880 FRONTIER DRIVE, SPRINGFIELD, VA  22150"
-76.99434604370191,38.933511317795755,18,mstn_003,BROOKLAND | CUA,http://www.wmata.com/rail/station_detail.cfm?station_id=27,9TH STREET NE BETWEEN BUNKER HILL RD NE AND MONROE ST NE,1370,Metro Station Entrance,2016-01-08T00:00:00.000Z,red,294853,"801 MICHIGAN AVENUE NE, WASHINGTON, DC 20017"
-76.912902256231845,38.889407790154124,19,mstn_043,CAPITOL HEIGHTS ELEVATOR,http://www.wmata.com/rail/station_detail.cfm?station_id=91,NORTH SIDE OF DAVEY ST BETWEEN SOUTHERN AVE AND EAST CAPITOL ST ,,Metro Station Entrance,2016-01-08T00:00:00.000Z,"silver, blue",,"133 CENTRAL AVENUE, CAPITOL HEIGHTS, MD 20743"
-76.895802252001914,38.886707789285211,20,mstn_044,ADDISON ROAD | SEAT PLEASANT,http://www.wmata.com/rail/station_detail.cfm?station_id=92,SW CORNER OF CENTRAL AVENUE AND ADDISON RD S ,,Metro Station Entrance,2016-01-08T00:00:00.000Z,"silver, blue",,"100 ADDISON ROAD S, CAPITOL HEIGHTS, MD 20743"
-76.995044660524897,38.933834318598727,21,mstn_003,BROOKLAND | CUA,http://www.wmata.com/rail/station_detail.cfm?station_id=27,NE CORNER OF JOHN MCCORMICK ROAD NE AND MICHIGAN AVENUE NE,1370,Metro Station Entrance,2016-01-08T00:00:00.000Z,red,294853,"801 MICHIGAN AVENUE NE, WASHINGTON, DC 20017"
-77.00249101483854,38.952653872494786,22,mstn_017,FORT TOTTEN,http://www.wmata.com/rail/station_detail.cfm?station_id=28,NORTH SIDE OF GALLOWAY STREET NE,1370,Metro Station Entrance,2016-01-08T00:00:00.000Z,"red, green, yellow",294852,"550 GALLOWAY STREET NE, WASHINGTON, DC 20011"
-76.995070066083215,38.862298360324679,23,mstn_001,ANACOSTIA,http://www.wmata.com/rail/station_detail.cfm?station_id=85,INTERSECTION OF HOWARD ROAD SE AND SHANNON PLACE SE,1370,Metro Station Entrance,2016-01-08T00:00:00.000Z,green,294867,"1101 HOWARD ROAD SE, WASHINGTON, DC 20020"
-76.995466453422495,38.862169452951747,24,mstn_001,ANACOSTIA,http://www.wmata.com/rail/station_detail.cfm?station_id=85,INTERSECTION OF HOWARD ROAD SE AND SHANNON PLACE SE,1370,Metro Station Entrance,2016-01-08T00:00:00.000Z,green,294867,"1101 HOWARD ROAD SE, WASHINGTON, DC 20020"
-76.98777759963761,38.845397673862038,25,mstn_008,CONGRESS HEIGHTS,http://www.wmata.com/rail/station_detail.cfm?station_id=86,NORTH SIDE OF ALABAMA AVENUE SE AT 13TH STREET SE,1370,Metro Station Entrance,2016-01-08T00:00:00.000Z,green,294865,"1290 ALABAMA AVENUE SE, WASHINGTON, DC 20020"
-76.987620431353477,38.844654667790941,26,mstn_008,CONGRESS HEIGHTS,http://www.wmata.com/rail/station_detail.cfm?station_id=86,SOUTH SIDE OF ALABAMA AVENUE SE AT 13TH STREET SE,1370,Metro Station Entrance,2016-01-08T00:00:00.000Z,green,294865,"1290 ALABAMA AVENUE SE, WASHINGTON, DC 20020"
-76.975691483732263,38.84044612709625,27,mstn_077,SOUTHERN AVE,http://www.wmata.com/rail/station_detail.cfm?station_id=107,SW CORNER OF SOUTHERN AVE SE AND VALLEY TERRACE SE,,Metro Station Entrance,2016-01-08T00:00:00.000Z,green,,"1411 SOUTHERN AVENUE, TEMPLE HILLS, MD 20748"
-76.975802768045611,38.840599906470537,28,mstn_077,SOUTHERN AVE,http://www.wmata.com/rail/station_detail.cfm?station_id=107,SW CORNER OF SOUTHERN AVE SE AND VALLEY TERRACE SE,,Metro Station Entrance,2016-01-08T00:00:00.000Z,green,,"1411 SOUTHERN AVENUE, TEMPLE HILLS, MD 20748"
-76.956802266227299,38.851007778812928,29,mstn_068,NAYLOR ROAD,http://www.wmata.com/rail/station_detail.cfm?station_id=87,EAST SIDE OF NAYLOR RD BETWEEN SUITLAND PKY AND BRANCH AVE MD-5 N ,,Metro Station Entrance,2016-01-08T00:00:00.000Z,green,,"3101 BRANCH AVENUE, TEMPLE HILLS, MD 20748"
-76.937449257309268,38.89040523258587,30,mstn_002,BENNING ROAD,http://www.wmata.com/rail/station_detail.cfm?station_id=90,NE CORNER OF BENNING ROAD NE AND CENTRAL AVENUE NE,1370,Metro Station Entrance,2016-01-08T00:00:00.000Z,"blue, silver",294851,"4500 BENNING ROAD NE, WASHINGTON, DC 20019"
-76.913302255911603,38.88920778636421,31,mstn_043,CAPITOL HEIGHTS,http://www.wmata.com/rail/station_detail.cfm?station_id=91,NORTH SIDE OF DAVEY ST BETWEEN SOUTHERN AVE AND EAST CAPITOL ST ,,Metro Station Entrance,2016-01-08T00:00:00.000Z,"silver, blue",,"133 CENTRAL AVENUE, CAPITOL HEIGHTS, MD 20743"
-77.233005543835418,38.921114649692917,32,mstn_059,GREENSBORO,http://www.wmata.com/rail/station_detail.cfm?station_id=113,NORTH SIDE OF VA-7 W AND LEESBURG PIKE,,Metro Station Entrance,2016-01-08T00:00:00.000Z,silver,,"8304 LEESBURG PIKE, VIENNA VA 22182"
-77.233132141859286,38.920958785744837,33,mstn_059,GREENSBORO ELEVATOR,http://www.wmata.com/rail/station_detail.cfm?station_id=113,NORTH SIDE OF VA-7 W AND LEESBURG PIKE,,Metro Station Entrance,2016-01-08T00:00:00.000Z,silver,,"8304 LEESBURG PIKE, VIENNA VA 22182"
-77.188883447074559,38.900326402051327,34,mstn_085,W FALLS CHURVH | VT | UVA,http://www.wmata.com/rail/station_detail.cfm?station_id=101,WEST SIDE OF DULLES TOLL RD BETWEEN I - 66 W AND I -66 E ,,Metro Station Entrance,2016-01-08T00:00:00.000Z,orange,,"7040 HAYCOCK ROAD, FALLS CHURCH, VA 22043"
-77.189002345615876,38.901107778917194,35,mstn_085,W FALLS CHURVH | VT | UVA,http://www.wmata.com/rail/station_detail.cfm?station_id=101,WEST SIDE OF DULLES TOLL RD BETWEEN I - 66 W AND I -66 E ,,Metro Station Entrance,2016-01-08T00:00:00.000Z,orange,,"7040 HAYCOCK ROAD, FALLS CHURCH, VA 22043"
-76.916524598319683,38.916262141620514,36,mstn_044,CHEVERLY ELEVATOR,http://www.wmata.com/rail/station_detail.cfm?station_id=66,SW CORNER OF JOHN HANSON HWY AND COLUMBIA PARK RD,,Metro Station Entrance,2016-01-08T00:00:00.000Z,orange,,"5501 COLUMBIA PARK ROAD, CHEVERLY, MD 20785"
-76.946927004766025,38.89861487614067,37,mstn_025,MINNESOTA AVE,http://www.wmata.com/rail/station_detail.cfm?station_id=64,NW SIDE OF MINNESOTA AVENUE NE,1370,Metro Station Entrance,2016-01-08T00:00:00.000Z,orange,294856,"4000 MINNESOTA AVENUE NE, WASHINGTON, DC 20019"
-76.946828575133424,38.89957697863192,38,mstn_025,MINNESOTA AVE,http://www.wmata.com/rail/station_detail.cfm?station_id=64,SW SIDE OF KENILWORTH AVENUE NE,1370,Metro Station Entrance,2016-01-08T00:00:00.000Z,orange,294856,"4000 MINNESOTA AVENUE NE, WASHINGTON, DC 20019"
-77.054579583509877,38.869163275203256,39,mstn_070,PENTAGON,http://www.wmata.com/rail/station_detail.cfm?station_id=43,NW CORNER OF N ROTARY RD AND S EADS ST,,Metro Station Entrance,2016-01-08T00:00:00.000Z,"blue, yellow",,"2 SOUTH ROTARY ROAD, ARLINGTON, VA 22202"
-77.053654824587227,38.869864510212231,40,mstn_070,PENTAGON,http://www.wmata.com/rail/station_detail.cfm?station_id=43,NW CORNER OF N ROTARY RD AND S EADS ST,,Metro Station Entrance,2016-01-08T00:00:00.000Z,"blue, yellow",,"2 SOUTH ROTARY ROAD, ARLINGTON, VA 22202"
-77.070902300311403,38.800607764451442,41,mstn_053,EISENHOWER AVENUE,http://www.wmata.com/rail/station_detail.cfm?station_id=49,SOUTH SIDE OF EISENHOWER AVE,,Metro Station Entrance,2016-01-08T00:00:00.000Z,yellow,,"2400 EISENHOWER AVENUE, ALEXANDRIA, VA 22314"
-77.075502296996234,38.792707762739177,42,mstn_061,HUNTINGTON,http://www.wmata.com/rail/station_detail.cfm?station_id=50,THE CLOSEST EXIT TO N KINGS HWY,,Metro Station Entrance,2016-01-08T00:00:00.000Z,yellow,,"5803 NORTH KINGS HIGHWAY, ALEXANDRIA, VA 22303"
-77.061202297205753,38.806307765463075,43,mstn_062,KING STREET,http://www.wmata.com/rail/station_detail.cfm?station_id=48,NE CORNER OF CALLAHAN DR AND KING ST ,,Metro Station Entrance,2016-01-08T00:00:00.000Z,"blue, yellow",,"1900 KING STREET, ALEXANDRIA, VA 22301"
-77.032807346806521,38.928564871737706,44,mstn_007,COLUMBIA HEIGHTS ELEVATOR,http://www.wmata.com/rail/station_detail.cfm?station_id=75,SW CORNER OF IRVING STREET NW AND 14TH STREET NW,1370,Metro Station Entrance,2016-01-08T00:00:00.000Z,"green,yellow",294815,"3030 14TH STREET NW, WASHINGTON, DC 20009"
-76.916709516485,38.91616118763838,45,mstn_044,CHEVERLY,http://www.wmata.com/rail/station_detail.cfm?station_id=66,SW CORNER OF JOHN HANSON HWY AND COLUMBIA PARK RD,,Metro Station Entrance,2016-01-08T00:00:00.000Z,orange,,"5501 COLUMBIA PARK ROAD, CHEVERLY, MD 20785"
-76.928744852905396,38.978364583259058,46,mstn_048,COLLEGE PARK ELEVATOR,http://www.wmata.com/rail/station_detail.cfm?station_id=79,NORTH SIDE OF CALVERT RD BETWEEN COLUMBIA AVE AND PAINT BRANCH PKY,,Metro Station Entrance,2016-01-08T00:00:00.000Z,green,,"4931 CALVERT ROAD, COLLEGE PARK, MD 20740"
-76.928021192850352,38.978140542958933,47,mstn_048,COLLEGE PARK ELEVATOR,http://www.wmata.com/rail/station_detail.cfm?station_id=79,WEST SIDE OF RIVER RD BETWEEN COLUMBIA AVE AND PAINT BRANCH PKY,,Metro Station Entrance,2016-01-08T00:00:00.000Z,green,,"4931 CALVERT ROAD, COLLEGE PARK, MD 20740"
-76.868407343825268,38.893558510828719,48,mstn_090,MORGAN BOULEVARD,http://www.wmata.com/rail/station_detail.cfm?station_id=110,WEST SIDE OF GARRET A MORGAN BLVD,,Metro Station Entrance,2016-01-08T00:00:00.000Z,"blue, silver",,"300 GARRETT MORGAN BOULEVARD, LANDOVER, MD 20785"
-76.987815722156455,38.845124267049535,49,mstn_008,CONGRESS HEIGHTS ELEVATOR,http://www.wmata.com/rail/station_detail.cfm?station_id=86,NORTH SIDE OF ALABAMA AVENUE SE AT 13TH STREET SE,1370,Metro Station Entrance,2016-01-08T00:00:00.000Z,green,294865,"1290 ALABAMA AVENUE SE, WASHINGTON, DC 20020"
-76.934838707893363,38.908198191250833,50,mstn_009,DEANWOOD ELEVATOR,http://www.wmata.com/rail/station_detail.cfm?station_id=65,SOUTH SIDE OF POLK STREET NE AT OLIVE STREET NE,1370,Metro Station Entrance,2016-01-08T00:00:00.000Z,orange,294858,"4720 MINNESOTA AVENUE NE, WASHINGTON, DC 20019"
-77.016037365923523,38.884921979466661,51,mstn_014,FEDERAL CENTER SW ELEVATOR,http://www.wmata.com/rail/station_detail.cfm?station_id=58,D STREET SW BETWEEN 3RD STREET SW AND 4TH STREET SW,1370,Metro Station Entrance,2016-01-08T00:00:00.000Z,"blue, orange, silver",294808,"401 3RD STREET SW, WASHINGTON, DC 20024"
-77.044332191131659,39.015827588974012,52,mstn_054,FOREST GLEN,http://www.wmata.com/rail/station_detail.cfm?station_id=32,SW CORNER OF FOREST GLEN RD AND GEORGIA AVE,,Metro Station Entrance,2016-01-08T00:00:00.000Z,red,,"9730 GEORGIA AVENUE, FOREST GLEN, MD 20910"
-77.053184010891059,39.062319629980372,53,mstn_057,GLENMONT,http://www.wmata.com/rail/station_detail.cfm?station_id=34,EAST SIDE OF GEORGIA AVE ,,Metro Station Entrance,2016-01-08T00:00:00.000Z,red,,"12501 GEORGIA AVENUE, SILVER SPRING, MD 20906"
-77.053365577987293,39.062283796615716,54,mstn_057,GLENMONT ELEVATOR,http://www.wmata.com/rail/station_detail.cfm?station_id=34,EAST SIDE OF GEORGIA AVE ,,Metro Station Entrance,2016-01-08T00:00:00.000Z,red,,"12501 GEORGIA AVENUE, SILVER SPRING, MD 20906"
-76.946697588976093,38.898814158316398,55,mstn_025,MINNESOTA AVE ELEVATOR,http://www.wmata.com/rail/station_detail.cfm?station_id=64,NW SIDE OF MINNESOTA AVENUE NE,1370,Metro Station Entrance,2016-01-08T00:00:00.000Z,orange,294856,"4000 MINNESOTA AVENUE NE, WASHINGTON, DC 20019"
-77.004719783532224,38.876625167942755,56,mstn_028,NAVY YARD-BALLPARK ELEVATOR,http://www.wmata.com/rail/station_detail.cfm?station_id=84,NW CORNER OF NEW JERSEY AVENUE SE AND M STREET SE,1370,Metro Station Entrance,2016-01-08T00:00:00.000Z,green,294869,"1155 NEW JERSEY AVENUE SE, WASHINGTON, DC 20003"
-77.021632340624521,38.914229603283417,57,mstn_032,SHAW | HOWARD UNIV ELEVATOR,http://www.wmata.com/rail/station_detail.cfm?station_id=72,NE CORNER OF S STREET NW AND 7TH STREET NW,1370,Metro Station Entrance,2016-01-08T00:00:00.000Z,"green,yellow",294838,"1801 7TH ST NW, WASHINGTON, DC 20001"
-77.02892220261721,38.916785183480442,58,mstn_005,U ST | AFRICAN AMER CIVIL WAR MEM | CARDOZO ELEV,http://www.wmata.com/rail/station_detail.cfm?station_id=73,U STREET NW BETWEEN 12TH ST NW AND 13TH STREET NW,1370,Metro Station Entrance,2016-01-08T00:00:00.000Z,"green,yellow",294840,"1240 U STREET NW, WASHINGTON, DC 20009"
-77.129687064619674,38.79971558106265,59,mstn_082,VAN DORN ST,http://www.wmata.com/rail/station_detail.cfm?station_id=94,NW CORNER OF EISENHOWER AVE ,,Metro Station Entrance,2016-01-08T00:00:00.000Z,blue,,"5690 EISENHOWER AVENUE, ALEXANDRIA, VA 22304"
-77.103283462388191,38.882837937823965,60,mstn_084,VIRGINIA SQUARE | GMU,http://www.wmata.com/rail/station_detail.cfm?station_id=98,SOUTHWEST CORNER OF N FAIRFAX DR AND N MONROE ST ,,Metro Station Entrance,2016-01-08T00:00:00.000Z,"orange, silver",,"3600 FAIRFAX DRIVE, ARLINGTON, VA 22201"
-77.017359289077589,38.876641474551555,61,mstn_039,WATERFRONT ELEVATOR,http://www.wmata.com/rail/station_detail.cfm?station_id=83,NE CORNER OF M STREET SW AND 4TH STREET SW,1370,Metro Station Entrance,2016-01-08T00:00:00.000Z,green,294877,"399 M STREET SW, WASHINGTON, DC 20024"
-76.87180224437796,38.94790780292081,62,mstn_069,NEW CARROLLTON,http://www.wmata.com/rail/station_detail.cfm?station_id=68,WEST SIDE OF GARDEN CITY DR ,,Metro Station Entrance,2016-01-08T00:00:00.000Z,orange,,"4700 GARDEN CITY DRIVE, NEW CARROLLTON, MD 20784"
-77.024108149118007,38.9370307380157,63,mstn_020,GEORGIA AVE | PETWORTH,http://www.wmata.com/rail/station_detail.cfm?station_id=76,NE CORNER OF GEORGIA AVENUE NW AND NEW HAMPSHIRE AVE NW,1370,Metro Station Entrance,2016-01-08T00:00:00.000Z,"green,yellow",294832,"3700 GEORGIA AVENUE NW, WASHINGTON, DC 20010"
-77.024607152449292,38.936780015816765,64,mstn_020,GEORGIA AVE | PETWORTH ELEVATOR,http://www.wmata.com/rail/station_detail.cfm?station_id=76,WEST SIDE OF GEORGIA AVENUE NW BETWEEN QUINCY STREET NW AND NEW HAMPSHIRE AVENUE NW,1370,Metro Station Entrance,2016-01-08T00:00:00.000Z,"green,yellow",294832,"3700 GEORGIA AVENUE NW, WASHINGTON, DC 20010"
-77.02471477373291,38.937128794450501,65,mstn_020,GEORGIA AVE | PETWORTH,http://www.wmata.com/rail/station_detail.cfm?station_id=76,WEST SIDE OF GEORGIA AVENUE NW BETWEEN QUINCY STREET NW AND NEW HAMPSHIRE AVENUE NW,1370,Metro Station Entrance,2016-01-08T00:00:00.000Z,"green,yellow",294832,"3700 GEORGIA AVENUE NW, WASHINGTON, DC 20010"
-76.994446090670266,38.933760241749532,66,mstn_003,BROOKLAND | CUA ELEVATOR,http://www.wmata.com/rail/station_detail.cfm?station_id=27,NW CORNER OF BUS BAY AND BUNKER HILL RD NE,1370,Metro Station Entrance,2016-01-08T00:00:00.000Z,red,294853,"801 MICHIGAN AVENUE NE, WASHINGTON, DC 20017"
-77.222568575752774,38.920662146846269,67,mstn_081,TYSONS CORNER ELEVATOR,http://www.wmata.com/rail/station_detail.cfm?station_id=112,NW CORNER OF TYSONS BLVD AND CHAIN BRIDGE RD ,,Metro Station Entrance,2016-01-08T00:00:00.000Z,silver,,"1943 CHAIN BRIDGE ROAD, MCLEAN, VA 22102"
-77.003828526913537,38.90571764135273,68,mstn_029,NOMA | GALLAUDET U | NEW YORK AVE,http://www.wmata.com/rail/station_detail.cfm?station_id=108,NORTH SIDE OF M STREET NE AT INTERSECTION WITH DELAWARE AVENUE NE,1370,Metro Station Entrance,2016-01-08T00:00:00.000Z,red,294857,"201 M STREET NE, WASHINGTON, DC  20002"
-77.053613705531802,39.061964669991085,69,mstn_057,GLENMONT ELEVATOR,http://www.wmata.com/rail/station_detail.cfm?station_id=34,WEST SIDE OF GEORGIA AVE ,,Metro Station Entrance,2016-01-08T00:00:00.000Z,red,,"12502 GEORGIA AVENUE, SILVER SPRING, MD 20906"
-77.017452500690837,38.896829713881566,70,mstn_021,JUDICIARY SQUARE NE ELEVATOR,http://www.wmata.com/rail/station_detail.cfm?station_id=23,SOUTH SIDE OF F STREET NW BETWEEN 4TH STREET NW AND 5TH STREET NW,1370,Metro Station Entrance,2016-01-08T00:00:00.000Z,red,294829,"450 F STREET NW, WASHINGTON, DC 20001"
-77.017656541061456,38.896653702540377,71,mstn_021,JUDICIARY SQUARE SW ELEVATOR,http://www.wmata.com/rail/station_detail.cfm?station_id=23,SOUTH SIDE OF F STREET NW BETWEEN 4TH STREET NW AND 5TH STREET NW,1370,Metro Station Entrance,2016-01-08T00:00:00.000Z,red,294829,"450 F STREET NW, WASHINGTON, DC 20001"
-77.07520229930941,38.794807761868981,72,mstn_061,HUNTINGTON,http://www.wmata.com/rail/station_detail.cfm?station_id=50,THE CLOSEST EXIT TO HUNTINGTON AVE,,Metro Station Entrance,2016-01-08T00:00:00.000Z,yellow,,"2701 HUNTINGTON AVENUE, ALEXANDRIA, VA 22303"
-76.995815295987583,38.884252866505847,73,mstn_011,EASTERN MARKET,http://www.wmata.com/rail/station_detail.cfm?station_id=60,SOUTH SIDE OF PENNSYLVANIA AVENUE SE BETWEEN 7TH STREET SE AND 8TH STREET SE,1370,Metro Station Entrance,2016-01-08T00:00:00.000Z,"blue, orange, silver",294870,"725 PENNSYLVANIA AVENUE SE, WASHINGTON, DC 20003"
-77.222012269452861,38.91978255629774,74,mstn_081,TYSONS CORNER ELEVATOR,http://www.wmata.com/rail/station_detail.cfm?station_id=112,SW CORNER OF TYSONS BLVD AND CHAIN BRIDGE RD ,,Metro Station Entrance,2016-01-08T00:00:00.000Z,silver,,"1923 CHAIN BRIDGE ROAD, MCLEAN, VA 22102"
-77.241007416886958,38.929157984374307,75,mstn_078,SPRING HILL ELEVATOR,http://www.wmata.com/rail/station_detail.cfm?station_id=114,WESTBOUND LEESBURG PIKE,,Metro Station Entrance,2016-01-08T00:00:00.000Z,silver,,"1575 SPRING HILL ROAD, VIENNA, VA 22182"
-77.340160737178437,38.947000699774605,76,mstn_089,WIEHLE | RESTON EAST ELEVATOR,http://www.wmata.com/rail/station_detail.cfm?station_id=115,WEST SIDE OF WIEHIE AVE ,,Metro Station Entrance,2016-01-08T00:00:00.000Z,silver,,"1864 WIEHLE AVENUE, RESTON, VA 20191"
-77.026671892114635,38.898434767506778,77,mstn_024,METRO CENTER,http://www.wmata.com/rail/station_detail.cfm?station_id=1,NE CORNER OF G STREET NW AND 11TH STREET NW,1370,Metro Station Entrance,2016-01-08T00:00:00.000Z,"red, blue, orange, silver",294812,"665 11TH STREET NW, WASHINGTON, DC 20005"
-77.029407503991337,38.898440197126398,78,mstn_024,METRO CENTER,http://www.wmata.com/rail/station_detail.cfm?station_id=1,NE CORNER OF G STREET NW AND 13TH STREET NW,1370,Metro Station Entrance,2016-01-08T00:00:00.000Z,"red, blue, orange, silver",294812,"607 13TH STREET NW, WASHINGTON, DC 20005"
-77.028233750573847,38.898992232613679,79,mstn_024,METRO CENTER,http://www.wmata.com/rail/station_detail.cfm?station_id=1,12TH STREET BETWEEN G ST NW AND H ST NW,1370,Metro Station Entrance,2016-01-08T00:00:00.000Z,"red, blue, orange, silver",294812,"701 12TH STREET NW, WASHINGTON, DC 20005"
-77.222402356123823,38.919807781107423,80,mstn_081,TYSONS CORNER,http://www.wmata.com/rail/station_detail.cfm?station_id=112,SW CORNER OF TYSONS BLVD AND CHAIN BRIDGE RD ,,Metro Station Entrance,2016-01-08T00:00:00.000Z,silver,,"1923 CHAIN BRIDGE ROAD, MCLEAN, VA 22102"
-76.996040452001253,38.884261123217705,81,mstn_011,EASTERN MARKET ELEVATOR,http://www.wmata.com/rail/station_detail.cfm?station_id=60,SOUTH SIDE OF PENNSYLVANIA AVENUE SE BETWEEN 7TH STREET SE AND 8TH STREET SE,1370,Metro Station Entrance,2016-01-08T00:00:00.000Z,"blue, orange, silver",294870,"725 PENNSYLVANIA AVENUE SE, WASHINGTON, DC 20003"
-77.240802360925656,38.929307783402258,82,mstn_078,SPRING HILL,http://www.wmata.com/rail/station_detail.cfm?station_id=114,WESTBOUND LEESBURG PIKE,,Metro Station Entrance,2016-01-08T00:00:00.000Z,silver,,"1575 SPRING HILL ROAD, VIENNA, VA 22182"
-77.085002310705505,38.891707782175487,83,mstn_049,COURT HOUSE ELEVATOR,http://www.wmata.com/rail/station_detail.cfm?station_id=96,NW CORNER OF N UHLE ST AND WILSON BLVD,,Metro Station Entrance,2016-01-08T00:00:00.000Z,"orange, silver",,"2100 WILSON BOULEVARD, ARLINGTON, VA 22201"
-77.022149963329852,38.905436073822734,84,mstn_026,MT VERNON SQ | 7TH ST | CONVENTION CENTER,http://www.wmata.com/rail/station_detail.cfm?station_id=70,SW CORNER OF 7TH STREET NW AND M STREET NW,1370,Metro Station Entrance,2016-01-08T00:00:00.000Z,"green, yellow",294834,"700 M STREET NW, WASHINGTON, DC 20001"
-77.022353177244554,38.905522076697771,85,mstn_026,MT VERNON SQ | 7TH ST | CONVENTION CENTER ELEV,http://www.wmata.com/rail/station_detail.cfm?station_id=70,SW CORNER OF 7TH STREET NW AND M STREET NW,1370,Metro Station Entrance,2016-01-08T00:00:00.000Z,"green, yellow",294834,"700 M STREET NW, WASHINGTON, DC 20001"
-76.977065187054436,38.888290778402357,86,mstn_034,STADIUM | ARMORY,http://www.wmata.com/rail/station_detail.cfm?station_id=63,NE CORNER OF 19TH STREET SE AND INDEPENDENCE AVENUE SE,1370,Metro Station Entrance,2016-01-08T00:00:00.000Z,"blue, orange, silver",294863,"102 19TH STREET SE, WASHINGTON, DC 20003"
-76.977045780664568,38.885663092807725,87,mstn_034,STADIUM | ARMORY,http://www.wmata.com/rail/station_detail.cfm?station_id=63,NE CORNER OF 19TH STREET SE AND C STREET SE,1370,Metro Station Entrance,2016-01-08T00:00:00.000Z,"blue, orange, silver",294863,"290 19TH STREET SE, WASHINGTON, DC 20003"
-76.977154106597894,38.885928715526042,88,mstn_034,STADIUM | ARMORY ELEVATOR,http://www.wmata.com/rail/station_detail.cfm?station_id=63,19TH STREET SE BETWEEN BURKE STREET SE AND C ST SE,1370,Metro Station Entrance,2016-01-08T00:00:00.000Z,"blue, orange, silver",294863,"290 19TH STREET SE, WASHINGTON, DC 20003"
-77.032429694346845,38.928876254911437,89,mstn_007,COLUMBIA HEIGHTS,http://www.wmata.com/rail/station_detail.cfm?station_id=75,NE CORNER OF IRVING STREET NW AND 14TH STREET NW,1370,Metro Station Entrance,2016-01-08T00:00:00.000Z,"green,yellow",294815,"3101 14TH STREET NW, WASHINGTON, DC 20009"
-76.935172477221258,38.908560834027419,90,mstn_009,DEANWOOD,http://www.wmata.com/rail/station_detail.cfm?station_id=65,NORTH SIDE OF MINNESOTA AVENUE NE AT 48TH STREET NE,1370,Metro Station Entrance,2016-01-08T00:00:00.000Z,orange,294858,"4701 POLK STREET NE, WASHINGTON, DC 20019"
-77.022127755740243,38.905940997812635,91,mstn_026,MT VERNON SQ | 7TH ST | CONVENTION CENTER ELEV,http://www.wmata.com/rail/station_detail.cfm?station_id=70,NW CORNER OF 7TH STREET NW AND M STREET NW,1370,Metro Station Entrance,2016-01-08T00:00:00.000Z,"green, yellow",294834,"700 M STREET NW, WASHINGTON, DC 20001"
-77.031353207857393,38.993746093126397,92,mstn_076,SILVER SPRING,http://www.wmata.com/rail/station_detail.cfm?station_id=31,SE CORNER OF EAST-WEST HWY AND COLESVILE RD,,Metro Station Entrance,2016-01-08T00:00:00.000Z,red,,"8400 COLESVILLE ROAD, SILVER SPRING, MD 20910"
-77.039319584005369,38.903028252280635,93,mstn_012,FARRAGUT NORTH ELEVATOR,http://www.wmata.com/rail/station_detail.cfm?station_id=4,NE CORNER OF 17TH STREET NW AND K STREET NW,1370,Metro Station Entrance,2016-01-08T00:00:00.000Z,red,294828,"1705 K STREET NW, WASHINGTON, DC 20036"
-77.112552756929801,39.047426105068297,94,mstn_088,WHITE FLINT,http://www.wmata.com/rail/station_detail.cfm?station_id=15,NE CORNER OF ROCKVILLE PIKE AND MARINELLI RD ,,Metro Station Entrance,2016-01-08T00:00:00.000Z,red,,"5500 MARINELLI ROAD, ROCKVILLE , MD 20852"
-77.113202329017355,39.047207814340204,95,mstn_088,WHITE FLINT,http://www.wmata.com/rail/station_detail.cfm?station_id=15,NW CORNER OF ROCKVILLE PIKE AND MARINELLI RD ,,Metro Station Entrance,2016-01-08T00:00:00.000Z,red,,"5500 MARINELLI ROAD, ROCKVILLE , MD 20852"
-77.05384336219106,38.869598318391539,96,mstn_070,PENTAGON ELEVATOR,http://www.wmata.com/rail/station_detail.cfm?station_id=43,NW CORNER OF N ROTARY RD AND S EADS ST,,Metro Station Entrance,2016-01-08T00:00:00.000Z,"blue, yellow",,"2 SOUTH ROTARY ROAD, ARLINGTON, VA 22202"
-77.079274859604595,38.948106253380075,97,mstn_036,TENLEYTOWN | AU ELEVATOR,http://www.wmata.com/rail/station_detail.cfm?station_id=10,NE CORNER OF ABLEMARLE STREET NW AND WISCONSIN AVENUE NW,1370,Metro Station Entrance,2016-01-08T00:00:00.000Z,red,294846,"4501 WISCONSIN AVENUE NW, WASHINGTON, DC 20016"
-77.044562293343418,38.910797986355043,98,mstn_010,DUPONT CIRCLE ELEVATOR,http://www.wmata.com/rail/station_detail.cfm?station_id=6,SE CORNER OF 20TH STREET NW AND Q STREET NW,1370,Metro Station Entrance,2016-01-08T00:00:00.000Z,red,294836,"1525 20TH ST NW, WASHINGTON, DC 20036"
-77.052876222192893,38.925457070912692,99,mstn_040,WOODLEY PARK | ZOO | ADAMS MORGAN ELEVATOR,http://www.wmata.com/rail/station_detail.cfm?station_id=7,SW CORNER OF CONNECTICUT AVENUE NW AND WOODLEY STREET NW,1370,Metro Station Entrance,2016-01-08T00:00:00.000Z,red,294827,"2700 CONNECTICUT AVENUE NW, WASHINGTON, DC 20008"
-77.063580987588708,38.943970191406528,100,mstn_038,VAN NESS | UDC ELEVATOR,http://www.wmata.com/rail/station_detail.cfm?station_id=9,SW CORNER OF CONNECTICUT AVENUE AND VEAZEY STREET NW,1370,Metro Station Entrance,2016-01-08T00:00:00.000Z,red,294824,"4200 CONNECTICUT AVENUE NW, WASHINGTON, DC 20008"
-77.085202054419383,38.960226117001426,101,mstn_018,FRIENDSHIP HEIGHTS ELEVATOR,http://www.wmata.com/rail/station_detail.cfm?station_id=11,EAST SIDE OF WISCONSIN AVENUE NW BETWEEN JENIFER STREET NW AND WESTERN AVENUE NW,1370,Metro Station Entrance,2016-01-08T00:00:00.000Z,red,294847,"1 WISCONSIN CIRCLE NW, WASHINGTON, DC 20015"
-77.165009460548006,39.12008409245955,102,mstn_075,SHADY GROVE ELEVATOR,http://www.wmata.com/rail/station_detail.cfm?station_id=18,NE CORNER OF REDLAND RD AND SOMERVILLE DR ,,Metro Station Entrance,2016-01-08T00:00:00.000Z,red,,"15903 SOMERVILLE DRIVE, ROCKVILLE, MD 20855"
-77.02791905449196,38.898927194682102,103,mstn_024,METRO CENTER ELEVATOR,http://www.wmata.com/rail/station_detail.cfm?station_id=1,12TH STREET BETWEEN G ST NW AND H ST NW,1370,Metro Station Entrance,2016-01-08T00:00:00.000Z,"red, blue, orange, silver",294812,"701 12TH STREET NW, WASHINGTON, DC 20005"
-77.032307889102057,38.901105990329775,104,mstn_023,MCPHERSON SQUARE ELEVATOR,http://www.wmata.com/rail/station_detail.cfm?station_id=36,SW CORNER OF 14TH STREET NW AND I STREET NW,1370,Metro Station Entrance,2016-01-08T00:00:00.000Z,"blue, orange, silver",294841,"1400 I STREET NW, WASHINGTON, DC 20005"
-77.041895070915317,38.901547793439669,105,mstn_013,FARRAGUT WEST ELEVATOR,http://www.wmata.com/rail/station_detail.cfm?station_id=38,NW CORNER OF 18TH STREET NW AND I STREET NW,1370,Metro Station Entrance,2016-01-08T00:00:00.000Z,"blue, orange, silver",294819,"900 18TH STREET NW, WASHINGTON, DC 20006"
-77.05086199173283,38.900840151958285,106,mstn_016,FOGGY BOTTOM | GWU ELEVATOR,http://www.wmata.com/rail/station_detail.cfm?station_id=40,NW CORNER OF 23RD STREET NW AND I STREET NW,1370,Metro Station Entrance,2016-01-08T00:00:00.000Z,"blue, orange, silver",294821,"2301 I STREET NW, WASHINGTON, DC 20037"
-77.338923486405875,38.948298802908766,107,mstn_089,WIEHLE | RESTON EAST,http://www.wmata.com/rail/station_detail.cfm?station_id=115,WEST SIDE OF WIEHIE AVE ,,Metro Station Entrance,2016-01-08T00:00:00.000Z,silver,,"1858 WIEHLE AVENUE, RESTON, VA 20190"
-77.339902393771794,38.946907783026234,108,mstn_089,WIEHLE | RESTON EAST,http://www.wmata.com/rail/station_detail.cfm?station_id=115,WEST SIDE OF WIEHIE AVE ,,Metro Station Entrance,2016-01-08T00:00:00.000Z,silver,,"1864 WIEHLE AVENUE, RESTON, VA 20191"
-77.043651748427692,39.015333169764382,109,mstn_054,FOREST GLEN,http://www.wmata.com/rail/station_detail.cfm?station_id=32,SW CORNER OF FOREST GLEN RD AND GEORGIA AVE,,Metro Station Entrance,2016-01-08T00:00:00.000Z,red,,"9730 GEORGIA AVENUE, FOREST GLEN, MD 20910"
-76.872181038089948,38.948430637038285,110,mstn_069,NEW CARROLLTON ELEVATOR,http://www.wmata.com/rail/station_detail.cfm?station_id=68,WEST SIDE OF GARDEN CITY DR ,,Metro Station Entrance,2016-01-08T00:00:00.000Z,orange,,"4201 ELLIN ROAD, NEW CARROLLTON, MD 20784"
-76.872402247176538,38.948407800017023,111,mstn_069,NEW CARROLLTON,http://www.wmata.com/rail/station_detail.cfm?station_id=68,WEST SIDE OF GARDEN CITY DR ,,Metro Station Entrance,2016-01-08T00:00:00.000Z,orange,,"4201 ELLIN ROAD, NEW CARROLLTON, MD 20784"
-77.222570678960196,38.920583445866797,112,mstn_081,TYSONS CORNER,http://www.wmata.com/rail/station_detail.cfm?station_id=112,NW CORNER OF TYSONS BLVD AND CHAIN BRIDGE RD ,,Metro Station Entrance,2016-01-08T00:00:00.000Z,silver,,"1943 CHAIN BRIDGE ROAD, MCLEAN, VA 22102"
-76.868548376260122,38.893771371539977,113,mstn_090,MORGAN BOULEVARD,http://www.wmata.com/rail/station_detail.cfm?station_id=110,GARRET A MORGAN BLVD AND SGT HARTMAN LN,,Metro Station Entrance,2016-01-08T00:00:00.000Z,"blue, silver",,"410 SERGEANT HARTMAN LANE, HYATTSVILLE, MD 20785"
-76.934722619264576,38.908267505942156,114,mstn_009,DEANWOOD,http://www.wmata.com/rail/station_detail.cfm?station_id=65,SOUTH SIDE OF POLK STREET NE AT OLIVE STREET NE,1370,Metro Station Entrance,2016-01-08T00:00:00.000Z,orange,294858,"4720 MINNESOTA AVENUE NE, WASHINGTON, DC 20019"
-77.022533283890027,38.893947125880658,115,mstn_027,ARCHIVES | NAVY MEM | PENN QUARTER,http://www.wmata.com/rail/station_detail.cfm?station_id=81,NW CORNER OF 7TH STREET NW AND PENNSYLVANIA AVENUE NW,1370,Metro Station Entrance,2016-01-08T00:00:00.000Z,"green,yellow",294835,"701 PENNSYLVANIA AVENUE NW, WASHINGTON, DC 20004"
-77.033032040432815,38.928618916879053,116,mstn_007,COLUMBIA HEIGHTS,http://www.wmata.com/rail/station_detail.cfm?station_id=75,SW CORNER OF IRVING STREET NW AND 14TH STREET NW,1370,Metro Station Entrance,2016-01-08T00:00:00.000Z,"green,yellow",294815,"3030 14TH STREET NW, WASHINGTON, DC 20009"
-77.021655681434339,38.899640054837334,117,mstn_019,GALLERY PL | CHINATOWN,http://www.wmata.com/rail/station_detail.cfm?station_id=21,SE CORNER OF 7TH STREET NW AND H STREET NW,1370,Metro Station Entrance,2016-01-08T00:00:00.000Z,"red, green, yellow",294833,"630 H STREET NW, WASHINGTON, DC 20001"
-77.023768735240864,38.898055955854133,118,mstn_019,GALLERY PL | CHINATOWN,http://www.wmata.com/rail/station_detail.cfm?station_id=21,SE CORNER OF 9TH STREET NW AND G STREET NW,1370,Metro Station Entrance,2016-01-08T00:00:00.000Z,"red, green, yellow",294833,"625 9TH STREET NW, WASHINGTON, DC 20001"
-76.968905646640636,38.955724234591543,119,mstn_086,WEST HYATTSVILLE,http://www.wmata.com/rail/station_detail.cfm?station_id=77,WEST SIDE OF JAMESTOWN RD ,,Metro Station Entrance,2016-01-08T00:00:00.000Z,green,,"2700 HAMILTON STREET, HYATTSVILLE, MD 20782"
-77.021577494843342,38.886254898940749,120,mstn_022,L'ENFANT PLAZA,http://www.wmata.com/rail/station_detail.cfm?station_id=82,SE CORNER OF 7TH STREET SW AND MARYLAND AVENUE SW,1370,Metro Station Entrance,2016-01-08T00:00:00.000Z,"green, yellow, orange, blue, silver",294875,"600 MARYLAND AVENUE SW, WASHINGTON, DC 20024"
-77.094202318328144,38.9836078024938,121,mstn_041,BETHESDA ELEVATOR,http://www.wmata.com/rail/station_detail.cfm?station_id=12,NW CORNER OF MONTGOMERY LN AND MD-355 S ,,Metro Station Entrance,2016-01-08T00:00:00.000Z,red,,"7450 WISCONSIN AVENUE, BETHESDA, MD 20814"
-77.146280637714725,39.084683881547711,122,mstn_073,ROCKVILLE,http://www.wmata.com/rail/station_detail.cfm?station_id=17,SOUTH SIDE OF PARK RD BETWEEN MD-355 N AND S STONESTREET AVE,,Metro Station Entrance,2016-01-08T00:00:00.000Z,red,,"399 SOUTH STONESTREET AVENUE, ROCKVILLE, MD 20850"
-77.017525276719041,38.897059761435052,123,mstn_021,JUDICIARY SQUARE,http://www.wmata.com/rail/station_detail.cfm?station_id=23,SOUTH SIDE OF F STREET NW BETWEEN 4TH STREET NW AND 5TH STREET NW,1370,Metro Station Entrance,2016-01-08T00:00:00.000Z,red,294829,"450 F STREET NW, WASHINGTON, DC 20001"
-77.071712362635296,38.895956427360979,124,mstn_074,ROSSLYN,http://www.wmata.com/rail/station_detail.cfm?station_id=41,N MOORE ST BETWEEN 19TH ST N AND WILSON BLVD,,Metro Station Entrance,2016-01-08T00:00:00.000Z,"orange, silver, blue",,"1850 NORTH MOORE STREET, ARLINGTON,VA 22209"
-77.071382736512277,38.896150540598853,125,mstn_074,ROSSLYN ELEVATOR,http://www.wmata.com/rail/station_detail.cfm?station_id=41,NORTH SIDE OF WILSON BLVD BETWEEN N MOORE ST AND N LYNN ST ,,Metro Station Entrance,2016-01-08T00:00:00.000Z,"orange, silver, blue",,"1850 NORTH MOORE STREET, ARLINGTON,VA 22209"
-77.094602317675339,38.984707802702609,126,mstn_041,BETHESDA,http://www.wmata.com/rail/station_detail.cfm?station_id=12,SW CORNER OF EAST-WEST HWY AND WISCONSIN AVE,,Metro Station Entrance,2016-01-08T00:00:00.000Z,red,,"7450 WISCONSIN AVENUE, BETHESDA, MD 20814"
-77.023547835154062,38.884457000002165,127,mstn_022,L'ENFANT PLAZA,http://www.wmata.com/rail/station_detail.cfm?station_id=82,SE CORNER OF 9TH STREET SW AND D STREET SW,1370,Metro Station Entrance,2016-01-08T00:00:00.000Z,"green, yellow, orange, blue, silver",294875,"800 D STREET SW, WASHINGTON, DC 20024"
-77.007133287011058,38.876278315014531,128,mstn_028,NAVY YARD-BALLPARK,http://www.wmata.com/rail/station_detail.cfm?station_id=84,NW CORNER OF HALF STREET SE AND M STREET SE,1370,Metro Station Entrance,2016-01-08T00:00:00.000Z,green,294869,"200 M STREET SE, WASHINGTON, DC 20003"
-77.00449748290545,38.876676752608475,129,mstn_028,NAVY YARD-BALLPARK,http://www.wmata.com/rail/station_detail.cfm?station_id=84,NW CORNER OF NEW JERSEY AVENUE SE AND M STREET SE,1370,Metro Station Entrance,2016-01-08T00:00:00.000Z,green,294869,"1155 NEW JERSEY AVENUE SE, WASHINGTON, DC 20003"
-77.022598085333811,38.912781330065634,130,mstn_032,SHAW | HOWARD UNIV,http://www.wmata.com/rail/station_detail.cfm?station_id=72,R ST NW BETWEEN 7TH ST NW AND 8TH ST NW,1370,Metro Station Entrance,2016-01-08T00:00:00.000Z,"green,yellow",294838,"1701 8TH STREET NW, WASHINGTON, DC 20001"
-77.021684156213411,38.914505924418215,131,mstn_032,SHAW | HOWARD UNIV,http://www.wmata.com/rail/station_detail.cfm?station_id=72,7TH ST NW BETWEEN S ST NW AND T ST NW,1370,Metro Station Entrance,2016-01-08T00:00:00.000Z,"green,yellow",294838,"1801 7TH ST NW, WASHINGTON, DC 20001"
-77.025975259539607,38.916721291656849,132,mstn_005,U ST | AFRICAN AMER CIVIL WAR MEM | CARDOZO,http://www.wmata.com/rail/station_detail.cfm?station_id=73,SW CORNER OF U STREET NW AND VERMONT AVENUE NW,1370,Metro Station Entrance,2016-01-08T00:00:00.000Z,"green,yellow",294840,"1000 U STREET NW, WASHINGTON, DC 20009"
-77.017538824346133,38.876989773726379,133,mstn_039,WATERFRONT,http://www.wmata.com/rail/station_detail.cfm?station_id=83,NE CORNER OF M STREET SW AND 4TH STREET SW,1370,Metro Station Entrance,2016-01-08T00:00:00.000Z,green,294877,"399 M STREET SW, WASHINGTON, DC 20024"
-76.912602255199033,38.827007775641739,134,mstn_042,BRANCH AVENUE,http://www.wmata.com/rail/station_detail.cfm?station_id=89,WEST SIDE OF OLD SOPER RD BETWEEN AUTH WAY AND CAPITAL GATEWAY DR,,Metro Station Entrance,2016-01-08T00:00:00.000Z,green,,"4704 OLD SOPER ROAD, SUITLAND, MD 20746"
-76.928904038743539,38.978370730847303,135,mstn_048,COLLEGE PARK,http://www.wmata.com/rail/station_detail.cfm?station_id=79,NORTH SIDE OF CALVERT RD BETWEEN COLUMBIA AVE AND PAINT BRANCH PKY,,Metro Station Entrance,2016-01-08T00:00:00.000Z,green,,"4931 CALVERT ROAD, COLLEGE PARK, MD 20740"
-76.927902267117886,38.978207805653796,136,mstn_048,COLLEGE PARK,http://www.wmata.com/rail/station_detail.cfm?station_id=79,WEST SIDE OF RIVER RD BETWEEN COLUMBIA AVE AND PAINT BRANCH PKY,,Metro Station Entrance,2016-01-08T00:00:00.000Z,green,,"4931 CALVERT ROAD, COLLEGE PARK, MD 20740"
-76.912002263474406,39.010807813082465,137,mstn_058,GREENBELT,http://www.wmata.com/rail/station_detail.cfm?station_id=80,NE CORNER OF 53RD AVE AND LACKAWANNA ST,,Metro Station Entrance,2016-01-08T00:00:00.000Z,green,,"5717 GREENBELT METRO DRIVE, GREENBELT, MD 20740"
-76.910902259239776,39.010907811342761,138,mstn_058,GREENBELT,http://www.wmata.com/rail/station_detail.cfm?station_id=80,NE CORNER OF 53RD AVE AND LACKAWANNA ST,,Metro Station Entrance,2016-01-08T00:00:00.000Z,green,,"5717 GREENBELT METRO DRIVE, GREENBELT, MD 20740"
-76.932102257170158,38.844407778143889,139,mstn_079,SUITLAND,http://www.wmata.com/rail/station_detail.cfm?station_id=88,NORTH SIDE OF SILVER HILL RD,,Metro Station Entrance,2016-01-08T00:00:00.000Z,green,,"4500 SILVER HILL ROAD, SUITLAND, MD 20746"
-77.09789199911944,38.999066491616553,140,mstn_066,MEDICAL CENTER,http://www.wmata.com/rail/station_detail.cfm?station_id=13,SW SIDE OF SOUTH DR AND ROCKVILLE PIKE ,,Metro Station Entrance,2016-01-08T00:00:00.000Z,red,,"8810 ROCKVILLE PIKE, BETHESDA, MD 20814"
-77.085402122521359,38.960748048781049,141,mstn_018,FRIENDSHIP HEIGHTS,http://www.wmata.com/rail/station_detail.cfm?station_id=11,NE CORNER OF WISCONSIN AVENUE NW AND WESTERN AVENUE NW,1370,Metro Station Entrance,2016-01-08T00:00:00.000Z,red,294847,"1 WISCONSIN CIRCLE NW, WASHINGTON, DC 20015"
-77.0856023178968,38.961207795489578,142,mstn_056,FRIENDSHIP HEIGHTS,http://www.wmata.com/rail/station_detail.cfm?station_id=11,NW SIDE OF WESTERN AVE AND MD-355 N ,,Metro Station Entrance,2016-01-08T00:00:00.000Z,red,,"1 WISCONSIN CIRCLE NW, WASHINGTON, DC 20015"
-77.146579365782969,39.084478482013409,143,mstn_073,ROCKVILLE,http://www.wmata.com/rail/station_detail.cfm?station_id=17,SOUTH SIDE OF PARK RD BETWEEN MD-355 N AND S STONESTREET AVE,,Metro Station Entrance,2016-01-08T00:00:00.000Z,red,,"251 HUNGERFORD DRIVE, ROCKVILLE, MD 20850"
-77.007202074090259,38.897492192704618,144,mstn_037,UNION STATION,http://www.wmata.com/rail/station_detail.cfm?station_id=25,NE CORNER OF 1ST STREET NE AND MASSACHUSETTS AVENUE NE,1370,Metro Station Entrance,2016-01-08T00:00:00.000Z,red,294849,"625 1ST STREET NE, WASHINGTON, DC 20002"
-77.031202297957222,38.993907805848835,145,mstn_076,SILVER SPRING,http://www.wmata.com/rail/station_detail.cfm?station_id=31,COLESVILE RD BETWEEN EAST_WEST HWY AND WAYNE AVE,,Metro Station Entrance,2016-01-08T00:00:00.000Z,red,,"8400 COLESVILLE ROAD, SILVER SPRING, MD 20910"
-77.031502296210064,38.994207803680617,146,mstn_076,SILVER SPRING,http://www.wmata.com/rail/station_detail.cfm?station_id=31,COLESVILE RD BETWEEN EAST_WEST HWY AND WAYNE AVE,,Metro Station Entrance,2016-01-08T00:00:00.000Z,red,,"8401 COLESVILLE ROAD, SILVER SPRING, MD 20910"
-77.031902303074673,38.994107805627927,147,mstn_076,SILVER SPRING,http://www.wmata.com/rail/station_detail.cfm?station_id=31,NE CORNER OF EAST-WEST HWY AND COLESVILE RD,,Metro Station Entrance,2016-01-08T00:00:00.000Z,red,,"8401 COLESVILLE ROAD, SILVER SPRING, MD 20910"
-77.017823974562191,38.975888909228708,148,mstn_035,TAKOMA ELEVATOR,http://www.wmata.com/rail/station_detail.cfm?station_id=29,NE SIDE OF CEDAR STREET NW AND BLAIR ROAD NW,1370,Metro Station Entrance,2016-01-08T00:00:00.000Z,red,294822,"327 CEDAR STREET NW, WASHINGTON, DC 20012"
-77.017415567321365,38.975103948491892,149,mstn_035,TAKOMA,http://www.wmata.com/rail/station_detail.cfm?station_id=29,NE SIDE OF CEDAR STREET NW AND BLAIR ROAD NW,1370,Metro Station Entrance,2016-01-08T00:00:00.000Z,red,294822,"327 CEDAR STREET NW, WASHINGTON, DC 20012"
-77.085765329327884,38.960453083843184,150,mstn_018,FRIENDSHIP HEIGHTS,http://www.wmata.com/rail/station_detail.cfm?station_id=11,SW CORNER OF WISCONSIN AVENUE NW AND WESTERN AVENUE NW,1370,Metro Station Entrance,2016-01-08T00:00:00.000Z,red,294847,"1 WISCONSIN CIRCLE NW, WASHINGTON, DC 20015"
-77.00722876066969,38.898399522448969,151,mstn_037,UNION STATION,http://www.wmata.com/rail/station_detail.cfm?station_id=25,NE CORNER OF MASSACHUSETTS AVE NE AND 1 ST NE,1370,Metro Station Entrance,2016-01-08T00:00:00.000Z,red,294849,"701 1ST STREET NE, WASHINGTON, DC 20002"
-77.072110380746878,38.89581466141307,152,mstn_074,ROSSLYN,http://www.wmata.com/rail/station_detail.cfm?station_id=41,N FORT MYER DR BETWEEN N NASH ST AND WILSON BLVD,,Metro Station Entrance,2016-01-08T00:00:00.000Z,"orange, silver, blue",,"1850 NORTH MOORE STREET, ARLINGTON,VA 22209"
-77.063750186021863,38.88455530515138,153,mstn_045,ARLINGTON CEMETERY,http://www.wmata.com/rail/station_detail.cfm?station_id=42,NW CORNER OF MEMORIAL AVE AND JEFFERSON DAVIS HWY,,Metro Station Entrance,2016-01-08T00:00:00.000Z,blue,,"1001 NORTH MEMORIAL DRIVE, ARLINGTON, VA 22211"
-77.063548653598602,38.8842239902174,154,mstn_045,ARLINGTON CEMETERY,http://www.wmata.com/rail/station_detail.cfm?station_id=42,SW CORNER OF MEMORIAL AVE AND JEFFERSON DAVIS HWY,,Metro Station Entrance,2016-01-08T00:00:00.000Z,blue,,"1000 NORTH MEMORIAL DRIVE, ARLINGTON, VA 22211"
-77.063343597323581,38.884726403649175,155,mstn_045,ARLINGTON CEMETERY ELEVATOR,http://www.wmata.com/rail/station_detail.cfm?station_id=42,NW CORNER OF MEMORIAL AVE AND JEFFERSON DAVIS HWY,,Metro Station Entrance,2016-01-08T00:00:00.000Z,blue,,"1001 NORTH MEMORIAL DRIVE, ARLINGTON, VA 22211"
-77.063080330196769,38.884824175089108,156,mstn_045,ARLINGTON CEMETERY ELEVATOR,http://www.wmata.com/rail/station_detail.cfm?station_id=42,NW CORNER OF MEMORIAL AVE AND JEFFERSON DAVIS HWY,,Metro Station Entrance,2016-01-08T00:00:00.000Z,blue,,"1001 NORTH MEMORIAL DRIVE, ARLINGTON, VA 22211"
-77.05028004714363,39.038678371696733,157,mstn_087,WHEATON,http://www.wmata.com/rail/station_detail.cfm?station_id=33,SE CORNER OF REEDIE DR AND GEORGIA AVE ,,Metro Station Entrance,2016-01-08T00:00:00.000Z,red,,"11171 GEORGIA AVENUE, SILVER SPRING, MD 20902"
-76.985204958774744,38.88077566308737,158,mstn_030,POTOMAC AVE,http://www.wmata.com/rail/station_detail.cfm?station_id=61,NE CORNER OF 14TH STREET SE AND POTOMAC AVENUE SE,1370,Metro Station Entrance,2016-01-08T00:00:00.000Z,"blue, orange, silver",294861,"700 14TH STREET SE, WASHINGTON , DC  20003"
-76.985107975447534,38.881071083750982,159,mstn_030,POTOMAC AVE ELEVATOR,http://www.wmata.com/rail/station_detail.cfm?station_id=61,SE CORNER OF 14TH STREET SE ANDG STREET SE,1370,Metro Station Entrance,2016-01-08T00:00:00.000Z,"blue, orange, silver",294861,"700 14TH STREET SE, WASHINGTON , DC  20003"
-77.006065386963826,38.885672675193945,160,mstn_004,CAPITOL SOUTH,http://www.wmata.com/rail/station_detail.cfm?station_id=59,WEST SIDE OF 1ST STREET SE BETWEEN C STREET SE AND D STREET SE,1370,Metro Station Entrance,2016-01-08T00:00:00.000Z,"blue, orange, silver",294860,"355 FIRST STREET SE, WASHINGTON, DC 20003"
-77.059110008838118,38.862556162979253,161,mstn_071,PENTAGON CITY,http://www.wmata.com/rail/station_detail.cfm?station_id=44,SE CORNER OF S HAYES ST AND 12TH ST S ,,Metro Station Entrance,2016-01-08T00:00:00.000Z,"blue, yellow",,"1250 SOUTH HAYES STREET, ARLINGTON, VA 22202"
-77.058969541455156,38.862817467504001,162,mstn_071,PENTAGON CITY ELEVATOR,http://www.wmata.com/rail/station_detail.cfm?station_id=44,SE CORNER OF S HAYES ST AND 12TH ST S ,,Metro Station Entrance,2016-01-08T00:00:00.000Z,"blue, yellow",,"1250 SOUTH HAYES STREET, ARLINGTON, VA 22202"
-77.059902300762943,38.862607776057125,163,mstn_071,PENTAGON CITY,http://www.wmata.com/rail/station_detail.cfm?station_id=44,SW CORNER OF S HAYES ST AND 12TH ST S ,,Metro Station Entrance,2016-01-08T00:00:00.000Z,"blue, yellow",,"1250 SOUTH HAYES STREET, ARLINGTON, VA 22202"
-77.051402295186747,38.858007775977029,164,mstn_050,CRYSTAL CITY,http://www.wmata.com/rail/station_detail.cfm?station_id=45,NW CORNER OF 18TH ST AND S BELL ST,,Metro Station Entrance,2016-01-08T00:00:00.000Z,"blue, yellow",,"1750 SOUTH CLARK STREET, ARLINGTON, VA 22202"
-77.050783965220418,38.857944860343302,165,mstn_050,CRYSTAL CITY ELEVATOR,http://www.wmata.com/rail/station_detail.cfm?station_id=45,NW CORNER OF 18TH ST AND S BELL ST,,Metro Station Entrance,2016-01-08T00:00:00.000Z,"blue, yellow",,"1750 SOUTH CLARK STREET, ARLINGTON, VA 22202"
-77.044702291478487,38.854607777369623,166,mstn_067,RONALD REAGAN WASHINGTON NATIONAL AIRPORT,http://www.wmata.com/rail/station_detail.cfm?station_id=93,WEST SIDE OF S SMITH BLVD PARKING GARAGE C AND TERMINAL C,,Metro Station Entrance,2016-01-08T00:00:00.000Z,"blue, yellow",,"2400 SOUTH SMITH BOULEVARD, ARLINGTON, VA 22202"
-77.043702296371322,38.852207777246385,167,mstn_067,RONALD REAGAN WASHINGTON NATIONAL AIRPORT,http://www.wmata.com/rail/station_detail.cfm?station_id=93,WEST SIDE OF S SMITH BLVD PARKING GARAGE B AND TERMINAL B,,Metro Station Entrance,2016-01-08T00:00:00.000Z,"blue, yellow",,"2400 SOUTH SMITH BOULEVARD, ARLINGTON, VA 22202"
-77.044091099192883,38.853470784707838,168,mstn_067,RONALD REAGAN WASHINGTON NATIONAL AIRPORT ELEV,http://www.wmata.com/rail/station_detail.cfm?station_id=93,WEST SIDE OF S SMITH BLVD,,Metro Station Entrance,2016-01-08T00:00:00.000Z,"blue, yellow",,"2400 SOUTH SMITH BOULEVARD, ARLINGTON, VA 22202"
-77.208592782875201,38.924434201629722,169,mstn_065,MCLEAN ELEVATOR,http://www.wmata.com/rail/station_detail.cfm?station_id=111,SW CORNER OF DOLLEY MADISON BLVD AND COLSHIRE DR,,Metro Station Entrance,2016-01-08T00:00:00.000Z,silver,,"1823 DOLLY MADISON BOULEVARD, MCLEAN, VA 22102"
-77.053802296629343,38.813707769708266,170,mstn_042,BRADDOCK ROAD,http://www.wmata.com/rail/station_detail.cfm?station_id=47,NW CORNER OF MT VERNON AVE AND E BRADDOCK RD ,,Metro Station Entrance,2016-01-08T00:00:00.000Z,"blue, yellow",,"700 NORTH WEST STREET, ALEXANDRIA, VA 22301"
-77.156602329794495,38.88590777661296,171,mstn_052,E FALLS CHURCH,http://www.wmata.com/rail/station_detail.cfm?station_id=100,BY N SYCAMORE ST AND I 66 HWY,,Metro Station Entrance,2016-01-08T00:00:00.000Z,"orange, silver",,"2001 NORTH SYCAMORE STREET, ARLINGTON, VA 22205"
-77.209496087781929,38.924809949811468,172,mstn_065,MCLEAN ELEVATOR,http://www.wmata.com/rail/station_detail.cfm?station_id=111,NE CORNER OF DOLLEY MADISON BLVD AND CAPITAL ONE DR,,Metro Station Entrance,2016-01-08T00:00:00.000Z,silver,,"1824 DOLLY MADISON BOULEVARD, MCLEAN, VA 22102"
-77.209608359992757,38.924758989293572,173,mstn_065,MCLEAN,http://www.wmata.com/rail/station_detail.cfm?station_id=111,NE CORNER OF DOLLEY MADISON BLVD AND CAPITAL ONE DR,,Metro Station Entrance,2016-01-08T00:00:00.000Z,silver,,"1824 DOLLY MADISON BOULEVARD, MCLEAN, VA 22102"
-77.208270398807585,38.924595614396374,174,mstn_065,MCLEAN,http://www.wmata.com/rail/station_detail.cfm?station_id=111,SW CORNER OF DOLLEY MADISON BLVD AND COLSHIRE DR,,Metro Station Entrance,2016-01-08T00:00:00.000Z,silver,,"1823 DOLLY MADISON BOULEVARD, MCLEAN, VA 22102"
-77.234166351715146,38.920673458603964,175,mstn_059,GREENSBORO,http://www.wmata.com/rail/station_detail.cfm?station_id=113,EAST BOUND VA-7 ELEESBURG PIKE,,Metro Station Entrance,2016-01-08T00:00:00.000Z,silver,,"8305 LEESBURG PIKE, VIENNA VA 22102"
-77.234009483478076,38.920508762843049,176,mstn_059,GREENSBORO ELEVATOR,http://www.wmata.com/rail/station_detail.cfm?station_id=113,EAST BOUND VA-7 ELEESBURG PIKE,,Metro Station Entrance,2016-01-08T00:00:00.000Z,silver,,"8305 LEESBURG PIKE, VIENNA VA 22102"
-77.241846381952286,38.928573962044148,177,mstn_078,SPRING HILL ELEVATOR,http://www.wmata.com/rail/station_detail.cfm?station_id=114,EASTBOUND LEESBURG PIKE,,Metro Station Entrance,2016-01-08T00:00:00.000Z,silver,,"1578 SPRING HILL ROAD, VIENNA, VA 22182"
-77.241702361466736,38.928407782396086,178,mstn_078,SPRING HILL,http://www.wmata.com/rail/station_detail.cfm?station_id=114,EASTBOUND LEESBURG PIKE,,Metro Station Entrance,2016-01-08T00:00:00.000Z,silver,,"1578 SPRING HILL ROAD, VIENNA, VA 22182"
-76.996022894293233,38.864435982096232,179,mstn_001,ANACOSTIA,http://www.wmata.com/rail/station_detail.cfm?station_id=85,NE CORNER OF HOWARD ROAD SE AND I - 295 SE,1370,Metro Station Entrance,2016-01-08T00:00:00.000Z,green,294867,"1700 ANACOSTIA DRIVE SE, WASHINGTON, DC 20020"
-77.12041015769195,39.06234039191196,180,mstn_080,TWINBROOK,http://www.wmata.com/rail/station_detail.cfm?station_id=16,WEST SIDE OF CHAPMAN AVE ,,Metro Station Entrance,2016-01-08T00:00:00.000Z,red,,"12600 PARKLAWN AVENUE, ROCKVILLE, MD 20852"
-77.021567422353272,38.897544239524471,181,mstn_019,GALLERY PL | CHINATOWN,http://www.wmata.com/rail/station_detail.cfm?station_id=21,NE CORNER OF 7TH STREET NW AND F STREET NW,1370,Metro Station Entrance,2016-01-08T00:00:00.000Z,"red, green, yellow",294833,"625 7TH STREET NW, WASHINGTON, DC 20001"
-77.021734820861482,38.897933539299096,182,mstn_019,GALLERY PL | CHINATOWN ELEVATOR,http://www.wmata.com/rail/station_detail.cfm?station_id=21,NE CORNER OF 7TH STREET NW AND F STREET NW,1370,Metro Station Entrance,2016-01-08T00:00:00.000Z,"red, green, yellow",294833,"625 7TH STREET NW, WASHINGTON, DC 20001"
-77.165002347374553,39.119907824705926,183,mstn_075,SHADY GROVE,http://www.wmata.com/rail/station_detail.cfm?station_id=18,NE CORNER OF REDLAND RD AND SOMERVILLE DR ,,Metro Station Entrance,2016-01-08T00:00:00.000Z,red,,"15903 SOMERVILLE DRIVE, ROCKVILLE, MD 20855"
-77.034952567634676,38.901137294222693,184,mstn_023,MCPHERSON SQUARE,http://www.wmata.com/rail/station_detail.cfm?station_id=36,SW CORNER OF VERMONT AVENUE NW AND I STREET NW,1370,Metro Station Entrance,2016-01-08T00:00:00.000Z,"blue, orange, silver",294841,"820 VERMONT ST NW, WASHINGTON, DC 20005"
-77.026794045414334,38.898080816151705,185,mstn_024,METRO CENTER,http://www.wmata.com/rail/station_detail.cfm?station_id=1,SE CORNER OF G STREET NW AND 11TH STREET NW,1370,Metro Station Entrance,2016-01-08T00:00:00.000Z,"red, blue, orange, silver",294812,"665 11TH STREET NW, WASHINGTON, DC 20005"
-77.027893882010915,38.898526550383629,186,mstn_024,METRO CENTER,http://www.wmata.com/rail/station_detail.cfm?station_id=1,NE CORNER OF G STREET NW AND 12TH STREET NW ,1370,Metro Station Entrance,2016-01-08T00:00:00.000Z,"red, blue, orange, silver",294812,"701 12TH STREET NW, WASHINGTON, DC 20005"
-77.028572360293239,38.897154966543724,187,mstn_024,METRO CENTER,http://www.wmata.com/rail/station_detail.cfm?station_id=1,SW CORNER OF 12TH ST NW AND F ST NW,1370,Metro Station Entrance,2016-01-08T00:00:00.000Z,"red, blue, orange, silver",294812,"1200 F STREET NW, WASHINGTON, DC 20005"
-77.029383962952593,38.898033794104805,188,mstn_024,METRO CENTER,http://www.wmata.com/rail/station_detail.cfm?station_id=1,SE CORNER OF G STREET NW AND 13TH STREET NW ,1370,Metro Station Entrance,2016-01-08T00:00:00.000Z,"red, blue, orange, silver",294812,"607 13TH STREET NW, WASHINGTON, DC 20005"
-77.003430469519884,38.907286966243362,189,mstn_029,NOMA | GALLAUDET U | NEW YORK AVE,http://www.wmata.com/rail/station_detail.cfm?station_id=108,EAST SIDE OF 2ND STREET NE AT INTERSECTION WITH N STREET NE ,1370,Metro Station Entrance,2016-01-08T00:00:00.000Z,red,294857,"200 FLORIDA AVENUE NE, WASHINGTON, DC  20002"
-76.996074682808384,38.920478494095256,190,mstn_031,RHODE ISLAND AVE | BRENTWOOD,http://www.wmata.com/rail/station_detail.cfm?station_id=26,SOUTH SIDE OF RHODE ISLAND AVENUE NE AT RHODE ISLAND PLACE SHOPPING CENTER,1370,Metro Station Entrance,2016-01-08T00:00:00.000Z,red,294859,"919 RHODE ISLAND AVENUE NE, WASHINGTON, DC 20018"
-77.028566457950689,38.887383714603303,191,mstn_033,SMITHSONIAN,http://www.wmata.com/rail/station_detail.cfm?station_id=54,SW CORNER OF INDEPENDENCE AVENUE SW AND 12TH STREET SW,1370,Metro Station Entrance,2016-01-08T00:00:00.000Z,"blue, orange, silver",294876,"1200 INDEPENDENCE AVENUE SW, WASHINGTON, DC 20004"
-77.020870648151984,38.884490257976942,192,mstn_022,L'ENFANT PLAZA,http://www.wmata.com/rail/station_detail.cfm?station_id=82,SOUTH SIDE OF D STREET SW BETWEEN 6TH STREET SW AND 7TH STREET SW,1370,Metro Station Entrance,2016-01-08T00:00:00.000Z,"green, yellow, orange, blue, silver",294875,"400 7TH STREET SW, WASHINGTON, DC 20024"
-77.029198356272758,38.916830742005757,193,mstn_005,U ST | AFRICAN AMER CIVIL WAR MEM | CARDOZO,http://www.wmata.com/rail/station_detail.cfm?station_id=73,SE CORNER  OF U STREET NW AND 13TH STREET NW,1370,Metro Station Entrance,2016-01-08T00:00:00.000Z,"green,yellow",294840,"1240 U STREET NW, WASHINGTON, DC 20009"
-76.955602274301597,38.964807802185945,194,mstn_072,PRINCE GEORGES PLAZA,http://www.wmata.com/rail/station_detail.cfm?station_id=78,SW CORNER OF EAST-WEST HWY AND BELCREST CENTER DR ,,Metro Station Entrance,2016-01-08T00:00:00.000Z,green,,"3575 EAST WEST HIGHWAY, HYATTSVILLE, MD 20782"
-76.89120225055774,38.933407799412144,195,mstn_063,LANDOVER,http://www.wmata.com/rail/station_detail.cfm?station_id=67,EAST SIDE OF US-50 E,,Metro Station Entrance,2016-01-08T00:00:00.000Z,orange,,"3000 PENNSY DRIVE, HYATTSVILLE, MD 20785"
-77.120702332593254,39.062107816312135,196,mstn_080,TWINBROOK,http://www.wmata.com/rail/station_detail.cfm?station_id=16,WEST SIDE OF CHAPMAN AVE ,,Metro Station Entrance,2016-01-08T00:00:00.000Z,red,,"1600 CHAPMAN AVENUE, ROCKVILLE, MD 20852"
-77.015987031673106,38.895321817776299,197,mstn_021,JUDICIARY SQUARE,http://www.wmata.com/rail/station_detail.cfm?station_id=23,NE CORNER OF 4TH STREET NW AND INDIANA AVENUE NW,1370,Metro Station Entrance,2016-01-08T00:00:00.000Z,red,294829,"435 4TH STREET NW, WASHINGTON, DC 20001"
-77.053604402795813,39.06179020999479,198,mstn_057,GLENMONT,http://www.wmata.com/rail/station_detail.cfm?station_id=34,WEST SIDE OF GEORGIA AVE ,,Metro Station Entrance,2016-01-08T00:00:00.000Z,red,,"12502 GEORGIA AVENUE, SILVER SPRING, MD 20906"
-77.006156411276379,38.88518993761889,199,mstn_004,CAPITOL SOUTH ELEVATOR,http://www.wmata.com/rail/station_detail.cfm?station_id=59,WEST SIDE OF 1ST STREET SE BETWEEN C STREET SE AND D STREET SE,1370,Metro Station Entrance,2016-01-08T00:00:00.000Z,"blue, orange, silver",294860,"355 FIRST STREET SE, WASHINGTON, DC 20003"
-77.039179553620855,38.902781481058803,200,mstn_012,FARRAGUT NORTH,http://www.wmata.com/rail/station_detail.cfm?station_id=4,NE CORNER OF 17TH STREET NW AND K STREET NW,1370,Metro Station Entrance,2016-01-08T00:00:00.000Z,red,294828,"1705 K STREET NW, WASHINGTON, DC 20036"
-77.022100012014604,38.885985398230893,201,mstn_022,L'ENFANT PLAZA ELEVATOR,http://www.wmata.com/rail/station_detail.cfm?station_id=82,SW CORNER OF 7TH STREET SW AND MARYLAND AVENUE SW,1370,Metro Station Entrance,2016-01-08T00:00:00.000Z,"green, yellow, orange, blue, silver",294875,"600 MARYLAND AVENUE SW, WASHINGTON, DC 20024"
-77.028437439652137,38.889078278016797,202,mstn_033,SMITHSONIAN,http://www.wmata.com/rail/station_detail.cfm?station_id=54,JEFFERSON DRIVE SW BETWEEN 12TH ST SW and 13TH ST NW,1370,Metro Station Entrance,2016-01-08T00:00:00.000Z,"blue, orange, silver",294876,"1201 JEFFERSON DRIVE SW, WASHINGTON, DC 20004"
-77.028535901562222,38.887756963490283,203,mstn_033,SMITHSONIAN ELEVATOR,http://www.wmata.com/rail/station_detail.cfm?station_id=54,NW CORNER OF INDEPENDENCE AVENUE SW AND 12TH STREET SW,1370,Metro Station Entrance,2016-01-08T00:00:00.000Z,"blue, orange, silver",294876,"1200 INDEPENDENCE AVENUE SW, WASHINGTON, DC 20004"
-77.079363388412332,38.948085117870839,204,mstn_036,TENLEYTOWN | AU,http://www.wmata.com/rail/station_detail.cfm?station_id=10,NE CORNER OF ABLEMARLE STREET NW AND WISCONSIN AVENUE NW,1370,Metro Station Entrance,2016-01-08T00:00:00.000Z,red,294846,"4501 WISCONSIN AVENUE NW, WASHINGTON, DC 20016"
-77.080171145636157,38.948316786715466,205,mstn_036,TENLEYTOWN | AU,http://www.wmata.com/rail/station_detail.cfm?station_id=10,WISCONSIN AVENUE NW BETWEEN RIVER RD NW AND ALBEMARLE ST NW,1370,Metro Station Entrance,2016-01-08T00:00:00.000Z,red,294846,"4501 WISCONSIN AVENUE NW, WASHINGTON, DC 20016"
-77.063574350587999,38.944630821217473,206,mstn_038,VAN NESS | UDC,http://www.wmata.com/rail/station_detail.cfm?station_id=9,NE CORNER OF CONNECTICUT AVENUE NW AND VEAZEY TERRACE NW,1370,Metro Station Entrance,2016-01-08T00:00:00.000Z,red,294824,"4200 CONNECTICUT AVENUE NW, WASHINGTON, DC 20008"
-77.052365292724488,38.924468114176264,207,mstn_040,WOODLEY PARK | ZOO | ADAMS MORGAN,http://www.wmata.com/rail/station_detail.cfm?station_id=7,SW CORNER OF CONNECTICUT AVENUE NW AND 24TH STREET NW,1370,Metro Station Entrance,2016-01-08T00:00:00.000Z,red,294827,"2700 CONNECTICUT AVENUE NW, WASHINGTON, DC 20008"
-77.097121843956813,38.999056710493171,208,mstn_066,MEDICAL CENTER ELEVATOR,http://www.wmata.com/rail/station_detail.cfm?station_id=13,SW SIDE OF SOUTH DR AND ROCKVILLE PIKE ,,Metro Station Entrance,2016-01-08T00:00:00.000Z,red,,"8810 ROCKVILLE PIKE, BETHESDA, MD 20814"
-77.111362954663804,38.88187609594452,209,mstn_046,BALLSTON,http://www.wmata.com/rail/station_detail.cfm?station_id=99,SE CORNER OF N STUART ST AND N FAIRFAX DR,,Metro Station Entrance,2016-01-08T00:00:00.000Z,"orange, silver",,"4230 FAIRFAX DRIVE, ARLINGTON, VA 22201"
-77.06403252795225,38.944539370101921,210,mstn_038,VAN NESS | UDC,http://www.wmata.com/rail/station_detail.cfm?station_id=9,NW CORNER OF CONNECTICUT AVENUE AND VEAZEY TERRACE NW,1370,Metro Station Entrance,2016-01-08T00:00:00.000Z,red,294824,"4200 CONNECTICUT AVENUE NW, WASHINGTON, DC 20008"
-77.112124257552878,38.882399176466336,211,mstn_046,BALLSTON ELEVATOR,http://www.wmata.com/rail/station_detail.cfm?station_id=99,NW CORNER OF N FAIRFAX DR AND N STUART ST ,,Metro Station Entrance,2016-01-08T00:00:00.000Z,"orange, silver",,"4230 FAIRFAX DRIVE, ARLINGTON, VA 22201"
-77.112139745406125,38.882352840991935,212,mstn_046,BALLSTON ELEVATOR,http://www.wmata.com/rail/station_detail.cfm?station_id=99,NW CORNER OF N FAIRFAX DR AND N STUART ST ,,Metro Station Entrance,2016-01-08T00:00:00.000Z,"orange, silver",,"4230 FAIRFAX DRIVE, ARLINGTON, VA 22201"
-77.129227650231172,38.799543093011344,213,mstn_082,VAN DORN ST,http://www.wmata.com/rail/station_detail.cfm?station_id=94,SE CORNER OF EISENHOWER AVE ,,Metro Station Entrance,2016-01-08T00:00:00.000Z,blue,,"5690 EISENHOWER AVENUE, ALEXANDRIA, VA 22304"
-77.059006889352034,38.936145516843808,214,mstn_006,CLEVELAND PARK,http://www.wmata.com/rail/station_detail.cfm?station_id=8,WEST SIDE OF CONNECTICUT AVENUE NW BETWEEN PORTER STREET NW AND ORDWAY STREET NW,1370,Metro Station Entrance,2016-01-08T00:00:00.000Z,red,294817,"3516 CONNECTICUT AVENUE NW, WASHINGTON, DC 20008"
-77.086102310963966,38.960907797284598,215,mstn_056,FRIENDSHIP HEIGHTS,http://www.wmata.com/rail/station_detail.cfm?station_id=11,NE SIDE OF WESTERN AVE AND MD-355 S,,Metro Station Entrance,2016-01-08T00:00:00.000Z,red,,"5337 WISCONSIN AVENUE NW, WASHINGTON, DC 20015"
-77.085014412358063,38.958515402482455,216,mstn_018,FRIENDSHIP HEIGHTS ELEVATOR,http://www.wmata.com/rail/station_detail.cfm?station_id=11,WEST SIDE OF WISCONSIN AVENUE NW BETWEEN JENIFER STREET NW AND INGOMAR STREET NW,1370,Metro Station Entrance,2016-01-08T00:00:00.000Z,red,294847,"5250 WISCONSIN AVENUE NW, WASHINGTON, DC 20015"
-77.032227529722633,38.900922323074006,217,mstn_023,MCPHERSON SQUARE,http://www.wmata.com/rail/station_detail.cfm?station_id=36,SW CORNER OF 14TH STREET NW AND I STREET NW,1370,Metro Station Entrance,2016-01-08T00:00:00.000Z,"blue, orange, silver",294841,"1400 I STREET NW, WASHINGTON, DC 20005"
-77.028315817087815,38.893777401108061,218,mstn_015,FEDERAL TRIANGLE ELEVATOR,http://www.wmata.com/rail/station_detail.cfm?station_id=53,RONALD REAGAN BUILDING - WEST SIDE OF 12TH STREET NW BETWEEN PENNSYLVANIA AVENUE NW AND CONSTITUTION AVENUE NW,1370,Metro Station Entrance,2016-01-08T00:00:00.000Z,"blue, orange, silver",294809,"302 12TH STREET NW, WASHINGTON, DC 20004"
-77.028715367432767,38.893834478005566,219,mstn_015,FEDERAL TRIANGLE,http://www.wmata.com/rail/station_detail.cfm?station_id=53,RONALD REAGAN BUILDING - WEST SIDE OF 12TH STREET NW BETWEEN PENNSYLVANIA AVENUE NW AND CONSTITUTION AVENUE NW,1370,Metro Station Entrance,2016-01-08T00:00:00.000Z,"blue, orange, silver",294809,"302 12TH STREET NW, WASHINGTON, DC 20004"
-77.058537425600363,38.935984684467471,220,mstn_006,CLEVELAND PARK,http://www.wmata.com/rail/station_detail.cfm?station_id=8,EAST SIDE OF CONNECTICUT AVENUE NW BETWEEN PORTER STREET NW AND ORDWAY STREET NW,1370,Metro Station Entrance,2016-01-08T00:00:00.000Z,red,294817,"3599 CONNECTICUT AVENUE NW, WASHINGTON, DC 20008"
-76.955602274460176,38.965807800714053,221,mstn_072,PRINCE GEORGES PLAZA,http://www.wmata.com/rail/station_detail.cfm?station_id=78,SW CORNER OF EAST-WEST HWY AND BELCREST CENTER DR ,,Metro Station Entrance,2016-01-08T00:00:00.000Z,green,,"3575 EAST WEST HIGHWAY, HYATTSVILLE, MD 20782"
-76.844922193644862,38.899872845107382,222,mstn_064,LARGO TOWN CENTER,http://www.wmata.com/rail/station_detail.cfm?station_id=109,WEST SIDE OF LOTTSFORD RD BETWEEN GRAND BLVD AND N HARRY S TRUMAN DR,,Metro Station Entrance,2016-01-08T00:00:00.000Z,"silver, blue",,"9000 LOTTSFORD ROAD, LARGO, MD 20774"
-77.164302350410011,39.120307823943477,223,mstn_075,SHADY GROVE,http://www.wmata.com/rail/station_detail.cfm?station_id=18,NE CORNER OF REDLAND RD AND SOMERVILLE DR ,,Metro Station Entrance,2016-01-08T00:00:00.000Z,red,,"15903 SOMERVILLE DRIVE, ROCKVILLE, MD 20855"
-77.051102308877489,39.038307813162973,224,mstn_087,WHEATON,http://www.wmata.com/rail/station_detail.cfm?station_id=33,SW CORNER OF REEDIE DR AND GEORGIA AVE ,,Metro Station Entrance,2016-01-08T00:00:00.000Z,red,,"11171 GEORGIA AVENUE, SILVER SPRING, MD 20902"
-77.058437113427345,38.935776981251422,225,mstn_006,CLEVELAND PARK ELEVATOR,http://www.wmata.com/rail/station_detail.cfm?station_id=8,EAST SIDE OF CONNECTICUT AVENUE NW BETWEEN PORTER STREET NW AND ORDWAY STREET NW,1370,Metro Station Entrance,2016-01-08T00:00:00.000Z,red,294817,"3599 CONNECTICUT AVENUE NW, WASHINGTON, DC 20008"
-77.044725726556877,38.911005802132529,226,mstn_010,DUPONT CIRCLE,http://www.wmata.com/rail/station_detail.cfm?station_id=6,SE CORNER OF 20TH STREET NW AND Q STREET NW,1370,Metro Station Entrance,2016-01-08T00:00:00.000Z,red,294836,"1525 20TH ST NW, WASHINGTON, DC 20036"
-77.039169088449924,38.901176673755245,227,mstn_013,FARRAGUT WEST,http://www.wmata.com/rail/station_detail.cfm?station_id=38,SE CORNER OF 17TH STREET NW AND I STREET NW,1370,Metro Station Entrance,2016-01-08T00:00:00.000Z,"blue, orange, silver",294819,"837 17TH STREET NW, WASHINGTON, DC 20006"
-77.041970417896621,38.901629731197445,228,mstn_013,FARRAGUT WEST,http://www.wmata.com/rail/station_detail.cfm?station_id=38,NW CORNER OF 18TH STREET NW AND I STREET NW,1370,Metro Station Entrance,2016-01-08T00:00:00.000Z,"blue, orange, silver",294819,"900 18TH STREET NW, WASHINGTON, DC 20006"
-77.015377327544513,38.884882182493321,229,mstn_014,FEDERAL CENTER SW,http://www.wmata.com/rail/station_detail.cfm?station_id=58,SE CORNER OF 3RD ST SW AND D ST SW,1370,Metro Station Entrance,2016-01-08T00:00:00.000Z,"blue, orange, silver",294808,"401 3RD STREET SW, WASHINGTON, DC 20024"
-77.040130222461812,38.903589847485492,230,mstn_012,FARRAGUT NORTH,http://www.wmata.com/rail/station_detail.cfm?station_id=4,SW CORNER OF L STREET NW AND CONNECTICUT AVENUE NW,1370,Metro Station Entrance,2016-01-08T00:00:00.000Z,red,294828,"1720 L STREET NW, WASHINGTON, DC 20036"
-77.039833846434419,38.903930455730929,231,mstn_012,FARRAGUT NORTH,http://www.wmata.com/rail/station_detail.cfm?station_id=4,NE CORNER OF L STREET NW AND CONNECTICUT AVENUE NW,1370,Metro Station Entrance,2016-01-08T00:00:00.000Z,red,294828,"1717 L STREET NW, WASHINGTON, DC 20036"
-77.022077966740525,38.893886646179787,232,mstn_027,ARCHIVES | NAVY MEM | PENN QUARTER ELEVATOR,http://www.wmata.com/rail/station_detail.cfm?station_id=81,NW CORNER OF 7TH STREET NW AND PENNSYLVANIA AVENUE NW,1370,Metro Station Entrance,2016-01-08T00:00:00.000Z,"green,yellow",294835,"701 PENNSYLVANIA AVENUE NW, WASHINGTON, DC 20004"
-77.05046474599574,38.900902890115148,233,mstn_016,FOGGY BOTTOM | GWU,http://www.wmata.com/rail/station_detail.cfm?station_id=40,NW CORNER OF 23RD STREET NW AND I STREET NW,1370,Metro Station Entrance,2016-01-08T00:00:00.000Z,"blue, orange, silver",294821,"2301 I STREET NW, WASHINGTON, DC 20037"
